1     5U 58002B   20126.81463012 +.00000185 +00000-0 +23100-3 0  9999
2     5 034.2494 359.6658 1847113 160.4367 207.7732 10.84842166200625
1    11U 59001A   20126.71367775 +.00000033 +00000-0 +17255-4 0  9991
2    11 032.8669 215.8710 1468098 010.1820 352.5413 11.85695065269905
1    12U 59001B   20126.45170337  .00000106  00000-0  43322-4 0  9994
2    12  32.9023 141.3677 1665487 209.8665 139.5720 11.44292280517627
1    16U 58002A   20126.84871200 -.00000168 +00000-0 -20434-3 0  9996
2    16 034.2624 277.5612 2026378 058.1371 320.0639 10.48692011454360
1    20U 59007A   20127.03246649  .00000036  00000-0  21580-4 0  9998
2    20  33.3439 333.1720 1664963  41.6658 329.9462 11.55679850225723
1    22U 59009A   20127.19445429  .00000230  00000-0  40517-4 0  9993
2    22  50.2837 300.3440 0139684  97.2941 264.3907 14.95123513219005
